{"signature":{"version":"1.2","source":"NASA/JPL Horizons API"},"result":"*******************************************************************************
 Revised: April 12, 2021                 Earth                              399
 
 GEOPHYSICAL PROPERTIES (revised May 9, 2022):
  Vol. Mean Radius (km)    = 6371.01+-0.02   Mass x10^24 (kg)= 5.97219+-0.0006
  Equ. radius, km          = 6378.137        Mass layers:
  Polar axis, km           = 6356.752          Atmos         = 5.1   x 10^18 kg
  Flattening               = 1/298.257223563   oceans        = 1.4   x 10^21 kg
  Density, g/cm^3          = 5.51              crust         = 2.6   x 10^22 kg
  J2 (IERS 2010)           = 0.00108262545     mantle        = 4.043 x 10^24 kg
  g_p, m/s^2  (polar)      = 9.8321863685      outer core    = 1.835 x 10^24 kg
  g_e, m/s^2  (equatorial) = 9.7803267715      inner core    = 9.675 x 10^22 kg
  g_o, m/s^2               = 9.82022         Fluid core rad  = 3480 km
  GM, km^3/s^2             = 398600.435436   Inner core rad  = 1215 km
  GM 1-sigma, km^3/s^2     =      0.0014     Escape velocity = 11.186 km/s
  Rot. Rate (rad/s)        = 0.00007292115   Surface area:
  Mean sidereal day, hr    = 23.9344695944     land          = 1.48 x 10^8 km
  Mean solar day 2000.0, s = 86400.002         sea           = 3.62 x 10^8 km
  Mean solar day 1820.0, s = 86400.0         Love no., k2    = 0.299
  Moment of inertia        = 0.3308          Atm. pressure   = 1.0 bar
  Mean surface temp (Ts), K= 287.6           Volume, km^3    = 1.08321 x 10^12
  Mean effect. temp (Te), K= 255             Magnetic moment = 0.61 gauss Rp^3
  Geometric albedo         = 0.367           Vis. mag. V(1,0)= -3.86
  Solar Constant (W/m^2)   = 1367.6 (mean), 1414 (perihelion), 1322 (aphelion)
 HELIOCENTRIC ORBIT CHARACTERISTICS:
  Obliquity to orbit, deg  = 23.4392911  Sidereal orb period  = 1.0000174 y
  Orbital speed, km/s      = 29.79       Sidereal orb period  = 365.25636 d
  Mean daily motion, deg/d = 0.9856474   Hill's sphere radius = 234.9       
*******************************************************************************


*******************************************************************************
Ephemeris / API_USER Sat Sep 20 11:17:50 2025 Pasadena, USA      / Horizons
*******************************************************************************
Target body name: Earth (399)                     {source: DE441}
Center body name: Sun (10)                        {source: DE441}
Center-site name: BODY CENTER
*******************************************************************************
Start time      : A.D. 1999-Dec-31 00:00:00.0000 TDB
Stop  time      : A.D. 2000-Jan-02 00:00:00.0000 TDB
Step-size       : 60 minutes
*******************************************************************************
Center geodetic : 0.0, 0.0, 0.0                   {E-lon(deg),Lat(deg),Alt(km)}
Center cylindric: 0.0, 0.0, 0.0                   {E-lon(deg),Dxy(km),Dz(km)}
Center radii    : 695700.0, 695700.0, 695700.0 km {Equator_a, b, pole_c}
Output units    : KM-S
Calendar mode   : Mixed Julian/Gregorian
Output type     : GEOMETRIC cartesian states
Output format   : 3 (position, velocity, LT, range, range-rate)
Reference frame : Ecliptic of J2000.0
*******************************************************************************
            JDTDB,            Calendar Date (TDB),                      X,                      Y,                      Z,                     VX,                     VY,                     VZ,                     LT,                     RG,                     RR,
**************************************************************************************************************************************************************************************************************************************************************************
$$SOE
2451543.500000000, A.D. 1999-Dec-31 00:00:00.0000, -2.262907275637914E+07,  1.453552220945015E+08, -6.112140410915017E+02, -2.992374092705709E+01, -4.683450516644690E+00, -1.824607582074922E-04,  4.906932546526087E+02,  1.471061369363255E+08, -2.459094771909504E-02,
2451543.541666667, A.D. 1999-Dec-31 01:00:00.0000, -2.273679228176193E+07,  1.453383223215223E+08, -6.118525696471334E+02, -2.992043705926731E+01, -4.705311976380784E+00, -1.722765518481495E-04,  4.906929614020977E+02,  1.471060490220340E+08, -2.425043816189113E-02,
2451543.583333333, A.D. 1999-Dec-31 02:00:00.0000, -2.284449988317384E+07,  1.453213438502496E+08, -6.124544270709157E+02, -2.991711649812479E+01, -4.727171787804240E+00, -1.620880274568748E-04,  4.906926722364730E+02,  1.471059623323606E+08, -2.391060371278795E-02,
2451543.625000000, A.D. 1999-Dec-31 03:00:00.0000, -2.295219550051161E+07,  1.453042866866498E+08, -6.130195991545916E+02, -2.991377923963776E+01, -4.749029932825112E+00, -1.518959283639543E-04,  4.906923871476490E+02,  1.471058768648813E+08, -2.357144089803771E-02,
2451543.666666667, A.D. 1999-Dec-31 04:00:00.0000, -2.305987907365771E+07,  1.452871508367546E+08, -6.135480743572116E+02, -2.991042527988105E+01, -4.770886393343111E+00, -1.417009942883407E-04,  4.906921061275809E+02,  1.471057926171844E+08, -2.323294624354383E-02,
2451543.708333333, A.D. 1999-Dec-31 05:00:00.0000, -2.316755054248060E+07,  1.452699363066609E+08, -6.140398437902331E+02, -2.990705461499546E+01, -4.792741151247897E+00, -1.315039613705160E-04,  4.906918291682665E+02,  1.471057095868707E+08, -2.289511627502034E-02,
2451543.750000000, A.D. 1999-Dec-31 06:00:00.0000, -2.327520984683497E+07,  1.452526431025305E+08, -6.144949012324214E+02, -2.990366724118705E+01, -4.814594188419358E+00, -1.213055622075743E-04,  4.906915562617446E+02,  1.471056277715537E+08, -2.255794751818278E-02,
2451543.791666667, A.D. 1999-Dec-31 07:00:00.0000, -2.338285692656196E+07,  1.452352712305909E+08, -6.149132430851460E+02, -2.990026315472658E+01, -4.836445486727867E+00, -1.111065258854183E-04,  4.906912874000963E+02,  1.471055471688593E+08, -2.222143649886877E-02,
2451543.833333333, A.D. 1999-Dec-31 08:00:00.0000, -2.349049172148941E+07,  1.452178206971345E+08, -6.152948683276772E+02, -2.989684235194888E+01, -4.858295028034533E+00, -1.009075780122881E-04,  4.906910225754439E+02,  1.471054677764258E+08, -2.188557974319895E-02,
2451543.875000000, A.D. 1999-Dec-31 09:00:00.0000, -2.359811417143209E+07,  1.452002915085192E+08, -6.156397786140442E+02, -2.989340482925222E+01, -4.880142794191425E+00, -9.070944075406651E-05,  4.906907617799518E+02,  1.471053895919042E+08, -2.155037377768125E-02,
2451543.916666667, A.D. 1999-Dec-31 10:00:00.0000, -2.370572421619188E+07,  1.451826836711683E+08, -6.159479781314731E+02, -2.988995058309769E+01, -4.901988767041779E+00, -8.051283287024980E-05,  4.906905050058258E+02,  1.471053126129578E+08, -2.121581512932246E-02,
2451543.958333333, A.D. 1999-Dec-31 11:00:00.0000, -2.381332179555807E+07,  1.451649971915703E+08, -6.162194737121463E+02, -2.988647961000867E+01, -4.923832928420214E+00, -7.031846974014933E-05,  4.906902522453139E+02,  1.471052368372627E+08, -2.088190032573166E-02,
2451544.000000000, A.D. 1999-Dec-31 12:00:00.0000, -2.392090684930752E+07,  1.451472320762792E+08, -6.164542746692896E+02, -2.988299190657020E+01, -4.945675260152897E+00, -6.012706340507989E-05,  4.906900034907051E+02,  1.471051622625070E+08, -2.054862589518805E-02,
2451544.041666667, A.D. 1999-Dec-31 13:00:00.0000, -2.402847931720493E+07,  1.451293883319145E+08, -6.166523929536343E+02, -2.987948746942844E+01, -4.967515744057726E+00, -4.993932260011213E-05,  4.906897587343304E+02,  1.471050888863919E+08, -2.021598836672328E-02,
2451544.083333333, A.D. 1999-Dec-31 14:00:00.0000, -2.413603913900300E+07,  1.451114659651612E+08, -6.168138430342078E+02, -2.987596629529006E+01, -4.989354361944475E+00, -3.975595278693511E-05,  4.906895179685631E+02,  1.471050167066307E+08, -1.988398427016416E-02,
2451544.125000000, A.D. 1999-Dec-31 15:00:00.0000, -2.424358625444274E+07,  1.450934649827696E+08, -6.169386418983340E+02, -2.987242838092175E+01, -5.011191095614944E+00, -2.957765618738506E-05,  4.906892811858170E+02,  1.471049457209492E+08, -1.955261013618502E-02,
2451544.166666667, A.D. 1999-Dec-31 16:00:00.0000, -2.435112060325355E+07,  1.450753853915557E+08, -6.170268090888858E+02, -2.986887372314964E+01, -5.033025926863087E+00, -1.940513181963865E-05,  4.906890483785483E+02,  1.471048759270859E+08, -1.922186249634717E-02,
2451544.208333333, A.D. 1999-Dec-31 17:00:00.0000, -2.445864212515359E+07,  1.450572271984010E+08, -6.170783666148782E+02, -2.986530231885878E+01, -5.054858837475129E+00, -9.239075527744944E-06,  4.906888195392548E+02,  1.471048073227916E+08, -1.889173788310668E-02,
2451544.250000000, A.D. 1999-Dec-31 18:00:00.0000, -2.456615075984985E+07,  1.450389904102525E+08, -6.170933390259743E+02, -2.986171416499261E+01, -5.076689809229661E+00,  9.198199768523097E-07,  4.906885946604756E+02,  1.471047399058297E+08, -1.856223282982626E-02,
2451544.291666667, A.D. 1999-Dec-31 19:00:00.0000, -2.467364644703844E+07,  1.450206750341230E+08, -6.170717533379793E+02, -2.985810925855246E+01, -5.098518823897750E+00,  1.107086509244404E-05,  4.906883737347920E+02,  1.471046736739759E+08, -1.823334387078875E-02,
2451544.333333333, A.D. 1999-Dec-31 20:00:00.0000, -2.478112912640480E+07,  1.450022810770908E+08, -6.170136390477419E+02, -2.985448759659705E+01, -5.120345863243005E+00,  2.121337328508943E-05,  4.906881567548263E+02,  1.471046086250186E+08, -1.790506754116845E-02,
2451544.375000000, A.D. 1999-Dec-31 21:00:00.0000, -2.488859873762386E+07,  1.449838085463000E+08, -6.169190281182528E+02, -2.985084917624201E+01, -5.142170909021654E+00,  3.134666106219264E-05,  4.906879437132426E+02,  1.471045447567586E+08, -1.757740037702599E-02,
